{
  "links" : {
    "next" : "https://api.nasa.gov/neo/rest/v1/feed?start_date=2015-07-09&end_date=2015-07-09&detailed=true&api_key=t0TVs3DtDT2H8Oy2Zy8m2eVrNsAVKAexjcZXUckd",
    "prev" : "https://api.nasa.gov/neo/rest/v1/feed?start_date=2015-07-07&end_date=2015-07-07&detailed=true&api_key=t0TVs3DtDT2H8Oy2Zy8m2eVrNsAVKAexjcZXUckd",
    "self" : "https://api.nasa.gov/neo/rest/v1/feed?start_date=2015-07-08&end_date=2015-07-08&detailed=true&api_key=t0TVs3DtDT2H8Oy2Zy8m2eVrNsAVKAexjcZXUckd"
  },
  "element_count" : 8,
  "near_earth_objects" : {
    "2015-07-08" : [ {
      "links" : {
        "self" : "https://api.nasa.gov/neo/rest/v1/neo/3722517?api_key=t0TVs3DtDT2H8Oy2Zy8m2eVrNsAVKAexjcZXUckd"
      },
      "neo_reference_id" : "3722517",
      "name" : "(2015 MO89)",
      "nasa_jpl_url" : "http://ssd.jpl.nasa.gov/sbdb.cgi?sstr=3722517",
      "absolute_magnitude_h" : 23.6,
      "estimated_diameter" : {
        "kilometers" : {
          "estimated_diameter_min" : 0.0506471459,
          "estimated_diameter_max" : 0.1132504611
        },
        "meters" : {
          "estimated_diameter_min" : 50.6471458835,
          "estimated_diameter_max" : 113.2504610618
        },
        "miles" : {
          "estimated_diameter_min" : 0.0314706677,
          "estimated_diameter_max" : 0.0703705522
        },
        "feet" : {
          "estimated_diameter_min" : 166.1651821003,
          "estimated_diameter_max" : 371.5566426699
        }
      },
      "is_potentially_hazardous_asteroid" : false,
      "close_approach_data" : [ {
        "close_approach_date" : "2015-07-08",
        "epoch_date_close_approach" : 1436338800000,
        "relative_velocity" : {
          "kilometers_per_second" : "8.2694111788",
          "kilometers_per_hour" : "29769.8802437066",
          "miles_per_hour" : "18497.8458658742"
        },
        "miss_distance" : {
          "astronomical" : "0.0515987337",
          "lunar" : "20.0719070435",
          "kilometers" : "7719061",
          "miles" : "4796402"
        },
        "orbiting_body" : "Earth"
      } ],
      "orbital_data" : {
        "orbit_id" : "8",
        "orbit_determination_date" : "2017-04-06 08:32:57",
        "orbit_uncertainty" : "7",
        "minimum_orbit_intersection" : ".0369978",
        "jupiter_tisserand_invariant" : "3.536",
        "epoch_osculation" : "2458000.5",
        "eccentricity" : ".5205180416321035",
        "semi_major_axis" : "2.118627367259454",
        "inclination" : "7.71323318241055",
        "ascending_node_longitude" : "86.09603711743391",
        "orbital_period" : "1126.367974317985",
        "perihelion_distance" : "1.015843599105384",
        "perihelion_argument" : "213.1768926720352",
        "aphelion_distance" : "3.221411135413525",
        "perihelion_time" : "2458350.745983718894",
        "mean_anomaly" : "248.0574048501794",
        "mean_motion" : ".3196113598826172",
        "equinox" : "J2000"
      }
    }, {
      "links" : {
        "self" : "https://api.nasa.gov/neo/rest/v1/neo/3738545?api_key=t0TVs3DtDT2H8Oy2Zy8m2eVrNsAVKAexjcZXUckd"
      },
      "neo_reference_id" : "3738545",
      "name" : "(2015 YH)",
      "nasa_jpl_url" : "http://ssd.jpl.nasa.gov/sbdb.cgi?sstr=3738545",
      "absolute_magnitude_h" : 27.9,
      "estimated_diameter" : {
        "kilometers" : {
          "estimated_diameter_min" : 0.0069912523,
          "estimated_diameter_max" : 0.0156329154
        },
        "meters" : {
          "estimated_diameter_min" : 6.9912523225,
          "estimated_diameter_max" : 15.6329154409
        },
        "miles" : {
          "estimated_diameter_min" : 0.0043441614,
          "estimated_diameter_max" : 0.0097138403
        },
        "feet" : {
          "estimated_diameter_min" : 22.9371802696,
          "estimated_diameter_max" : 51.289094295
        }
      },
      "is_potentially_hazardous_asteroid" : false,
      "close_approach_data" : [ {
        "close_approach_date" : "2015-07-08",
        "epoch_date_close_approach" : 1436338800000,
        "relative_velocity" : {
          "kilometers_per_second" : "4.9976624771",
          "kilometers_per_hour" : "17991.5849174825",
          "miles_per_hour" : "11179.2711949768"
        },
        "miss_distance" : {
          "astronomical" : "0.3108730254",
          "lunar" : "120.9296112061",
          "kilometers" : "46505944",
          "miles" : "28897454"
        },
        "orbiting_body" : "Earth"
      } ],
      "orbital_data" : {
        "orbit_id" : "3",
        "orbit_determination_date" : "2017-04-06 08:29:45",
        "orbit_uncertainty" : "8",
        "minimum_orbit_intersection" : ".0101176",
        "jupiter_tisserand_invariant" : "5.115",
        "epoch_osculation" : "2457373.5",
        "eccentricity" : ".2629635926313657",
        "semi_major_axis" : "1.24643845619383",
        "inclination" : "4.97399339590546",
        "ascending_node_longitude" : "83.39007963954877",
        "orbital_period" : "508.2819489591419",
        "perihelion_distance" : ".9186705217592073",
        "perihelion_argument" : "304.9231942083449",
        "aphelion_distance" : "1.574206390628453",
        "perihelion_time" : "2457325.948608703708",
        "mean_anomaly" : "33.67914383290677",
        "mean_motion" : ".7082683159164059",
        "equinox" : "J2000"
      }
    }, {
      "links" : {
        "self" : "https://api.nasa.gov/neo/rest/v1/neo/3177202?api_key=t0TVs3DtDT2H8Oy2Zy8m2eVrNsAVKAexjcZXUckd"
      },
      "neo_reference_id" : "3177202",
      "name" : "(2004 FH)",
      "nasa_jpl_url" : "http://ssd.jpl.nasa.gov/sbdb.cgi?sstr=3177202",
      "absolute_magnitude_h" : 25.7,
      "estimated_diameter" : {
        "kilometers" : {
          "estimated_diameter_min" : 0.0192555078,
          "estimated_diameter_max" : 0.0430566244
        },
        "meters" : {
          "estimated_diameter_min" : 19.2555078188,
          "estimated_diameter_max" : 43.0566244241
        },
        "miles" : {
          "estimated_diameter_min" : 0.0119648141,
          "estimated_diameter_max" : 0.0267541378
        },
        "feet" : {
          "estimated_diameter_min" : 63.1742402722,
          "estimated_diameter_max" : 141.2618956756
        }
      },
      "is_potentially_hazardous_asteroid" : false,
      "close_approach_data" : [ {
        "close_approach_date" : "2015-07-08",
        "epoch_date_close_approach" : 1436338800000,
        "relative_velocity" : {
          "kilometers_per_second" : "12.5370056472",
          "kilometers_per_hour" : "45133.2203297486",
          "miles_per_hour" : "28044.0279321152"
        },
        "miss_distance" : {
          "astronomical" : "0.3996700733",
          "lunar" : "155.4716491699",
          "kilometers" : "59789792",
          "miles" : "37151652"
        },
        "orbiting_body" : "Earth"
      } ],
      "orbital_data" : {
        "orbit_id" : "21",
        "orbit_determination_date" : "2017-04-06 09:13:05",
        "orbit_uncertainty" : "5",
        "minimum_orbit_intersection" : "2.06111E-6",
        "jupiter_tisserand_invariant" : "7.120",
        "epoch_osculation" : "2458000.5",
        "eccentricity" : ".2890667509402134",
        "semi_major_axis" : ".8180401793655486",
        "inclination" : ".02098654628181642",
        "ascending_node_longitude" : "290.9775331785905",
        "orbital_period" : "270.2466877514277",
        "perihelion_distance" : ".5815719625778001",
        "perihelion_argument" : "36.62217363134805",
        "aphelion_distance" : "1.054508396153297",
        "perihelion_time" : "2458043.322650698304",
        "mean_anomaly" : "302.9552518121182",
        "mean_motion" : "1.332116234227918",
        "equinox" : "J2000"
      }
    } ]
  }
}